[{"OBJECT_NAME":"STARLINK-35043","OBJECT_ID":"2025-194C","EPOCH":"2026-03-09T13:09:26.133696","MEAN_MOTION":15.01266309,"ECCENTRICITY":0.00022628,"INCLINATION":97.6045,"RA_OF_ASC_NODE":285.0493,"ARG_OF_PERICENTER":74.6485,"MEAN_ANOMALY":285.4989,"EPHEMERIS_TYPE":0,"CLASSIFICATION_TYPE":"U","NORAD_CAT_ID":65436,"ELEMENT_SET_NO":999,"REV_AT_EPOCH":2967,"BSTAR":0.00026824056,"MEAN_MOTION_DOT":3.389e-5,"MEAN_MOTION_DDOT":0},{"OBJECT_NAME":"CZ-4C R\/B","OBJECT_ID":"2024-186B","EPOCH":"2026-03-09T22:51:12.491424","MEAN_MOTION":15.07425891,"ECCENTRICITY":0.00475116,"INCLINATION":97.8722,"RA_OF_ASC_NODE":96.5934,"ARG_OF_PERICENTER":122.4234,"MEAN_ANOMALY":238.1602,"EPHEMERIS_TYPE":0,"CLASSIFICATION_TYPE":"U","NORAD_CAT_ID":61572,"ELEMENT_SET_NO":999,"REV_AT_EPOCH":7672,"BSTAR":0.00027865777,"MEAN_MOTION_DOT":4.262e-5,"MEAN_MOTION_DDOT":0}]
